entity_id,source_name,long.x,lat.x,long.y,lat.y,long_diff,lat_diff,check_coords,lat_correct,long_correct,notes
27001POTW04,Tamarack WWTP,-93.12638164,46.6477362,-93.1282687,46.645348,0.00188706,0.0023882,done,"46.64818197468432,",-93.12525426,
27005POTW01,Detroit Lakes WWTP,-95.86483229,46.81147286,-95.8641635,46.8151198,-6.69E-04,-0.00364694,done,46.81147286,-95.86483229,
27021POTW03,East Gull Lake WWTP,-94.3490049,46.41327675,-94.35377358,46.41933568,0.00476868,-0.00605893,done,"46.413022407456154,",-94.34858343,
27023POTW01,Montevideo WWTP,-95.72897781,44.93978189,-95.7289978,44.9397599,2.00E-05,2.20E-05,don't check,,,
27025POTW2,Chisago Lakes Joint STC,-92.87411215,45.40773137,-92.8748973,45.4062138,7.85E-04,0.00151757,done,45.40773137,-92.87411215,
27019POTW02,Cologne WWTP,-93.79276069,44.77241421,-93.7927778,44.7724236,1.71E-05,-9.39E-06,don't check,,,
27001POTW03,Palisade WWTP,-93.49615455,46.71111344,-93.4906699,46.709355,-0.00548465,0.00175844,done,"46.71081164472443,",-93.49440536,
27021POTW05,Federal Dam WWTP,-94.20890099,47.24623557,-94.20901068,47.24615566,1.10E-04,7.99E-05,don't check,,,
27025POTW03,Harris WWTP,-92.97237071,45.5812224,-92.9723707,45.5812065,-1.00E-08,1.59E-05,don't check,,,
27013POTW01,Amboy WWTP,-94.14845544,43.88808573,-94.1484626,43.8880803,7.16E-06,5.43E-06,don't check,,,
27019POTW06,Mayer WWTP,-93.91377392,44.88479428,-93.91393956,44.88478539,1.66E-04,8.89E-06,don't check,,,
27013POTW03,Mankato Water Resource Recovery Facility,-94.00036372,44.18259705,-93.9996688,44.1825772,-6.95E-04,1.99E-05,don't check,,,
27021POTW01,Pine River Area Sanitary District,-94.39614333,46.71274999,-94.3961433,46.7127499,-3.00E-08,9.00E-08,don't check,,,
27029POTW01,Gonvick WWTP,-95.50785166,47.7397399,-95.5078516,47.7397399,-6.00E-08,0,don't check,,,
27013POTW06,Lake Crystal WWTP,-94.21509668,44.11535809,-94.2151075,44.1153656,1.08E-05,-7.51E-06,don't check,,,
27019POTW04,Norwood Young America WWTP,-93.91861312,44.76708113,-93.9186175,44.7670768,4.38E-06,4.33E-06,don't check,,,
27031POTW01,Grand Marais WWTP,-90.32879521,47.75191032,-90.3287952,47.7519103,-1.00E-08,2.00E-08,don't check,,,
27013POTW02,Saint Clair WWTP,-93.86258493,44.08557565,-93.8625929,44.0855755,7.97E-06,1.50E-07,don't check,,,
27023POTW05,Clara City WWTP,-95.37068004,44.94530055,-95.3706878,44.9453057,7.76E-06,-5.15E-06,don't check,,,
27025POTW01,North Branch WWTP,-92.97523692,45.52102857,-92.9752369,45.5210285,-2.00E-08,7.00E-08,don't check,,,
27015POTW02,Springfield WWTP,-94.96538712,44.24006214,-94.9654047,44.2400554,1.76E-05,6.74E-06,don't check,,,
27019POTW01,Watertown WWTP,-93.84271021,44.96918074,-93.8422729,44.9702449,-4.37E-04,-0.00106416,done,"44.96957822022518,",-93.84101116,
27013POTW04,Vernon Center WWTP,-94.16437531,43.95966339,-94.16437361,43.95966372,-1.70E-06,-3.30E-07,don't check,,,
27023POTW03,Granite Falls WWTP,-95.54026002,44.80588393,-95.54010859,44.80583311,-1.51E-04,5.08E-05,don't check,,,
27007POTW01,Bemidji WWTP,-94.87603064,47.46427789,-94.87602514,47.46446625,-5.50E-06,-1.88E-04,don't check,,,
27001POTW01,Aitkin WWTP,-93.71269553,46.54052929,-93.7127279,46.5405439,3.24E-05,-1.46E-05,don't check,,,
27015POTW01,Comfrey WWTP,-94.89109782,44.10801616,-94.8911044,44.1080252,6.58E-06,-9.04E-06,don't check,,,
27023POTW06,Maynard WWTP,-95.469252,44.901766,-95.47005255,44.90409433,8.01E-04,-0.00232833,done,44.901766,-95.469252,
27079POTW03,Waterville WWTP,-93.55401843,44.21794209,-93.5540185,44.2179596,7.00E-08,-1.75E-05,don't check,,,
27083POTW01,Marshall WWTP,-95.7888581,44.47208126,-95.7888572,44.4720641,-9.00E-07,1.72E-05,don't check,,,
27093POTW02,Litchfield WWTP,-94.52042224,45.1400747,NA,NA,NA,NA,done,"45.141807693380834,",-94.52058314,
27065POTW03,Ogilvie WWTP,-93.41061732,45.83233088,-93.41474197,45.83176425,0.00412465,5.67E-04,done,45.83233088,-93.41061732,
27117POTW01,Holland WWTP,-96.18690699,44.08546362,-96.1869069,44.0854636,-9.00E-08,2.00E-08,don't check,,,
27121POTW01,Starbuck WWTP,-95.53548168,45.6105512,-95.53547332,45.61054331,-8.36E-06,7.89E-06,don't check,,,
27131POTW02,Faribault WWTP,-93.27186094,44.30621945,-93.2715192,44.3060492,-3.42E-04,1.70E-04,don't check,,,
27131POTW03,Lonsdale WWTP,-93.4168218,44.47539854,-93.4168564,44.4753984,3.46E-05,1.40E-07,don't check,,,
27109POTW02,Rochester WWTP/Water Reclamation Plant,-92.47113742,44.06171315,-92.4689632,44.0617573,-0.00217422,-4.41E-05,done,"44.06373307211196,",-92.46774709,
27095POTW01,Princeton WWTP,-93.5709,45.5513,-93.5832684,45.5710545,0.0123684,-0.0197545,done,45.5513,-93.5709,
27137POTW10,Hibbing WWTP South Plant,-92.90810236,47.37182692,-92.9016479,47.2829065,-0.00645446,0.08892042,done,"47.37296302005356,",-92.91571334,
27137POTW02,Hoyt Lakes WWTP,-92.15005484,47.50962318,-92.1500431,47.509615,-1.17E-05,8.18E-06,don't check,,,
27145POTW06,Sauk Centre WWTP,-94.94164499,45.72346386,-94.9416629,45.7234164,1.79E-05,4.75E-05,don't check,,,
27147POTW05,Hope - Somerset Township WWTP,-93.2684962,43.96980191,-93.2683427,43.969831,-1.53E-04,-2.91E-05,don't check,,,
27157POTW02,Wabasha WWTP,-92.01153092,44.3537642,-92.0115231,44.3537195,-7.82E-06,4.47E-05,don't check,,,
27169POTW04,Whitewater River Regional WWTP,-92.0570229,43.98311738,-92.0570074,43.9831391,-1.55E-05,-2.17E-05,don't check,,,
27171POTW01,Saint Michael WWTP,-93.65894282,45.19777019,-93.6590388,45.1983403,9.60E-05,-5.70E-04,don't check,,,
27045POTW06,Harmony WWTP,-92.0079331,43.54392437,-92.0078533,43.5440519,-7.98E-05,-1.28E-04,don't check,,,
27045POTW01,Lanesboro WWTP,-91.97066764,43.7220168,-91.9706676,43.7220168,-4.00E-08,0,don't check,,,
27049POTW05,Pine Island WWTP,-92.63868063,44.20334222,-92.6386731,44.2033342,-7.53E-06,8.02E-06,don't check,,,
27049POTW06,Red Wing WWTP,-92.52793498,44.57117916,-92.5279175,44.5711701,-1.75E-05,9.06E-06,don't check,,,
27063POTW01,Lakefield WWTP,-95.17447123,43.68470393,-95.1746116,43.6847326,1.40E-04,-2.87E-05,don't check,,,
27059POTW03,Isanti WWTP,-93.25091187,45.50019444,NA,NA,NA,NA,done,"45.501745646259295,",-93.24772167,
27067POTW08,Glacial Lakes SSWD,-94.86594751,45.25693738,NA,NA,NA,NA,done,"45.25693903170198,",-94.84509086,
27049POTW04,Cannon Falls WWTP,-92.88864452,44.51601591,-92.87662279,44.51767352,-0.01202173,-0.00165761,done,44.51601591,-92.88864452,
27099POTW02,Austin WWTP,-92.97264466,43.65491411,-92.9726446,43.6549141,-6.00E-08,1.00E-08,don't check,,,
27073POTW02,Madison WWTP,-96.16785139,45.00312837,-96.1946506,45.0097404,0.02679921,-0.00661203,done,"45.00224080806122,",-96.16605969,
27127POTW05,Delhi WWTP,-95.20834725,44.59681285,-95.208339,44.596805,-8.25E-06,7.85E-06,don't check,,,
27135POTW01,Springsteel Island Sanitary District,-95.31229798,48.94693686,-95.3121434,48.9469654,-1.55E-04,-2.85E-05,don't check,,,
27141POTW04,Zimmerman WWTP,-93.58288063,45.42537157,-93.5828727,45.4253634,-7.93E-06,8.17E-06,don't check,,,
27137POTW17,ISD 2142 Pre-Kindergarten to Grade 12 N School,-92.77764496,47.8880496,-92.77669421,47.88722659,-9.51E-04,8.23E-04,don't check,,,
27159POTW01,Wadena WWTP,-95.12528137,46.44169425,-95.125281,46.4416857,-3.70E-07,8.55E-06,don't check,,,
27169POTW03,Winona WWTP,-91.60286644,44.03337973,-91.6028801,44.0333899,1.37E-05,-1.02E-05,don't check,,,
27045POTW04,Mabel WWTP,-91.7615786,43.52440888,-91.7615786,43.5244088,0,8.00E-08,don't check,,,
27049POTW03,Wanamingo WWTP,-92.78618622,44.30708694,-92.78618317,44.30708869,-3.05E-06,-1.75E-06,don't check,,,
27067POTW05,Prinsburg WWTP,-95.20461571,44.94395187,-95.20345538,44.94409226,-0.00116033,-1.40E-04,done,"44.94841169760516,",-95.21026479,
27075POTW03,Two Harbors WWTP,-91.66426175,47.02035928,-91.66467744,47.01715886,4.16E-04,0.00320042,done,47.01715886,-91.66467744,
27055POTW01,Caledonia WWTP,-91.5018095,43.6318351,-91.5017933,43.6318348,-1.62E-05,3.00E-07,don't check,,,
27091POTW06,Fairmont WWTP,-94.45962524,43.67020798,-94.45962894,43.67020811,3.70E-06,-1.30E-07,don't check,,,
27103POTW02,Lafayette WWTP,-94.39146333,44.44010032,NA,NA,NA,NA,done,"44.43925079831596,",-94.39214013,
27075POTW01,Silver Bay WWTP,-91.27000569,47.29514522,-91.2699788,47.2951431,-2.69E-05,2.12E-06,don't check,,,
27131POTW01,Morristown WWTP,-93.43821196,44.22695653,-93.4490719,44.2263294,0.01085994,6.27E-04,done,44.22695653,-93.43821196,
27139POTW06,Belle Plaine WWTP,-93.79600139,44.6246269,-93.7960013,44.6246269,-9.00E-08,0,don't check,,,
27143POTW01,Arlington WWTP,-94.0646221,44.60019322,-94.0651124,44.60146026,4.90E-04,-0.00126704,done,44.60019322,-94.0646221,
27147POTW03,Owatonna WWTP,-93.23099492,44.09518182,-93.2313585,44.0964061,3.64E-04,-0.00122428,done,44.0964061,-93.2313585,
27161POTW02,New Richland WWTP,-93.5023895,43.89396818,-93.4914774,43.8953222,-0.0109121,-0.00135402,done,43.89396818,-93.5023895,
27171POTW07,Albertville WWTP,-93.64548498,45.23979763,-93.64903014,45.24042922,0.00354516,-6.32E-04,done,"45.24149067182472,",-93.64838337,
27067POTW04,Willmar WWTP,-95.14511063,45.09531941,NA,NA,NA,NA,done,"45.097131920421766,",-95.15289502,
27055POTW03,Hokah WWTP,-91.35061256,43.7622301,-91.3506115,43.7622313,-1.06E-06,-1.20E-06,don't check,,,
27091POTW05,Sherburn WWTP,-94.71782081,43.65192028,-94.7145843,43.6517269,-0.00323651,1.93E-04,done,"43.6523207495345,",-94.71507005,
27127POTW02,Morgan WWTP,-94.93610769,44.41999303,-94.9343475,44.418112,-0.00176019,0.00188103,done,"44.42136870034992,",-94.93722283,
27131POTW04,Nerstrand WWTP,-93.06820033,44.33639205,-93.0682003,44.3363917,-3.00E-08,3.50E-07,don't check,,,
27137POTW11,Mountain Iron WWTP,-92.61490167,47.51302152,-92.61489419,47.51301371,-7.48E-06,7.81E-06,don't check,,,
27151POTW03,Appleton WWTP,-96.03245626,45.20187762,-96.0324292,45.2018266,-2.71E-05,5.10E-05,don't check,,,
27047POTW03,Albert Lea WWTP,-93.30197628,43.6058976,-93.3084238,43.6059795,0.00644752,-8.19E-05,done,43.6058976,-93.30197628,
27049POTW07,Zumbrota WWTP,-92.66660216,44.30052286,-92.6666021,44.3005228,-6.00E-08,6.00E-08,don't check,,,
27079POTW01,Le Center WWTP,-93.73727631,44.377738,-93.7372993,44.3777378,2.30E-05,2.00E-07,don't check,,,
27103POTW01,Saint Peter city of,-93.95740632,44.33962873,NA,NA,NA,NA,done,"44.34103945756453,",-93.95783332,
27103POTW03,Saint George District Sewer System,-94.53492827,44.38929684,-94.5349812,44.3929303,5.29E-05,-0.00363346,check,,,Cant find
27127POTW08,Redwood Falls WWTP,-95.10811858,44.57040689,-95.1081185,44.5704068,-8.00E-08,9.00E-08,don't check,,,
27139POTW02,Jordan WWTP,-93.63050892,44.67969585,-93.6305229,44.6797056,1.40E-05,-9.75E-06,don't check,,,
27137POTW03,Aurora WWTP,-92.24751086,47.51712406,-92.2475108,47.517124,-6.00E-08,6.00E-08,don't check,,,
27137POTW08,Orr WWTP,-92.83238152,48.04601826,-92.8326087,48.0463069,2.27E-04,-2.89E-04,don't check,,,
27161POTW03,Waldorf WWTP,-93.702814,43.936856,-93.69472441,43.93508981,-0.00808959,0.00176619,done,43.936856,-93.702814,
27171POTW14,Annandale/Maple Lake/Howard Lake WWTP,-94.03329442,45.17859876,-94.033294,45.1785788,-4.20E-07,2.00E-05,don't check,,,
27047POTW01,Emmons WWTP,-93.4951657,43.49977738,-93.4951911,43.4997772,2.54E-05,1.80E-07,don't check,,,
27053POTW02,Greenfield WWTP,-93.73160088,45.0813762,-93.72991151,45.08146626,-0.00168937,-9.01E-05,done,45.0813762,-93.73160088,
27071POTW06,ISD 363 - Indus School,-93.90086774,48.63082038,-93.9008828,48.6308101,1.51E-05,1.03E-05,don't check,,,
27079POTW04,MRVPUC WWTP,-93.90383704,44.47514862,-93.903837,44.4751486,-4.00E-08,2.00E-08,don't check,,,
27055POTW04,Houston WWTP,-91.56581321,43.76128793,-91.5658132,43.7612879,-1.00E-08,3.00E-08,don't check,,,
27091POTW03,Trimont WWTP,-94.70716648,43.76737162,-94.7048324,43.7684252,-0.00233408,-0.00105358,done,"43.76900002677349,",-94.70519575,
27105POTW01,Worthington WWTP,-95.57515988,43.64520619,-95.5751598,43.6452061,-8.00E-08,9.00E-08,don't check,,,
27133POTW01,Luverne WWTP,-96.20532416,43.65446257,-96.20532509,43.65446497,9.30E-07,-2.40E-06,don't check,,,
27139POTW01,New Prague WWTP,-93.56783818,44.55815448,-93.5678381,44.5581544,-8.00E-08,8.00E-08,don't check,,,
27137POTW05,Babbitt WWTP,-91.96423912,47.70707358,-91.9639753,47.7068618,-2.64E-04,2.12E-04,don't check,,,
27151POTW01,Benson WWTP,-95.61617613,45.31657599,-95.6161827,45.3165758,6.57E-06,1.90E-07,don't check,,,
27161POTW01,Waseca WWTP,-93.54698011,44.07016352,-93.5469283,44.0700317,-5.18E-05,1.32E-04,don't check,,,
27171POTW19,Cokato WWTP,-94.16430865,45.09157977,-94.1643087,45.0915833,5.00E-08,-3.53E-06,don't check,,,
27053POTW01,Rogers WWTP,-93.56045758,45.20502935,-93.55302147,45.18972011,-0.00743611,0.01530924,done,"45.20113331054942,",-93.5622382,
27079POTW02,Montgomery WWTP,-93.59286676,44.45902977,-93.58241869,44.437548,-0.01044807,0.02148177,done,"44.45907572541689,",-93.59733,
27055POTW07,Spring Grove WWTP,-91.64022132,43.55483117,-91.6402213,43.5548311,-2.00E-08,7.00E-08,don't check,,,
27091POTW01,Welcome WWTP,-94.6152546,43.67784787,-94.6150686,43.6781426,-1.86E-04,-2.95E-04,don't check,,,
27107POTW01,Halstad WWTP,-96.81980851,47.35323842,-96.82941735,47.35036451,0.00960884,0.00287391,done,"47.35187972592154,",-96.83240725,
27129POTW03,Franklin WWTP,-94.88863037,44.52360618,-94.8886201,44.5236063,-1.03E-05,-1.20E-07,don't check,,,
27137POTW09,Virginia WWTP,-92.552929,47.50107962,-92.5529415,47.5010712,1.25E-05,8.42E-06,don't check,,,
27151POTW02,Kerkhoven WWTP,-95.30797305,45.19271965,-95.3057899,45.1942961,-0.00218315,-0.00157645,done,45.19271965,-95.30797305,
27033POTW01,Windom WWTP,-95.10772324,43.86017227,-95.1077232,43.8601722,-4.00E-08,7.00E-08,don't check,,,
27147POTW02,Medford WWTP,-93.24865529,44.17891662,-93.22613992,44.17463314,-0.02251537,0.00428348,done,44.17891662,-93.24865529,
27055POTW05,Brownsville WWTP,-91.27799386,43.69201,-91.28921982,43.68999581,0.01122596,0.00201419,done,43.69201,-91.27799386,
27037POTW01,Northfield WWTP,-93.14881238,44.47570882,-93.1488123,44.4757088,-8.00E-08,2.00E-08,don't check,,,
27033POTW02,Delft Sanitary District WWTP,-95.08642908,43.99237656,-95.02800856,43.96227152,-0.05842052,0.03010504,done,"43.991784906935386,",-95.09064207,
27039POTW01,Dodge Center WWTP,-92.85881473,44.03942905,-92.8588147,44.039429,-3.00E-08,5.00E-08,don't check,,,
27091POTW02,Truman WWTP,-94.42542344,43.82758879,-94.4252583,43.8253529,-1.65E-04,0.00223589,check,,,Cant find
27129POTW05,Hector WWTP,-94.69445641,44.74509846,-94.694865,44.7460066,4.09E-04,-9.08E-04,don't check,,,
27097POTW02,Little Falls WWTP,-94.36857616,45.96585397,-94.3685761,45.9658539,-6.00E-08,7.00E-08,don't check,,,
27127POTW04,Wabasso WWTP,-95.2513948,44.40436295,-95.251405,44.4043596,1.02E-05,3.35E-06,don't check,,,
27137POTW15,Central Iron Range Sanitary Sewer District WWTP,-92.86716885,47.48483746,-92.8310354,47.5858248,-0.03613345,-0.10098734,done,"47.47961837782655,",-92.84230633,
27145POTW10,Avon WWTP,-94.44087319,45.62861756,-94.444386,45.6161608,0.00351281,0.01245676,done,45.62861756,-94.44087319,
27165POTW05,La Salle WWTP,-94.56692886,44.07105902,-94.56689447,44.0744636,-3.44E-05,-0.00340458,done,"44.07255032670239,",-94.56748477,
27171POTW08,Delano WWTP,-93.78455872,45.05192373,-93.78454275,45.05195057,-1.60E-05,-2.68E-05,don't check,,,
27035POTW01,Brainerd WWTP,-94.22622641,46.33846077,-94.23368208,46.33740994,0.00745567,0.00105083,done,"46.33766079224198,",-94.22806296,
27037POTW02,Vermillion WWTP,-92.96438888,44.67781071,-92.9643888,44.6778107,-8.00E-08,1.00E-08,don't check,,,
27059POTW02,Braham WWTP,-93.17740278,45.72164001,-93.1771329,45.7219366,-2.70E-04,-2.97E-04,don't check,,,
27085POTW01,Brownton WWTP,-94.34217072,44.73334503,-94.34217,44.73334539,-7.20E-07,-3.60E-07,don't check,,,
27043POTW01,Winnebago WWTP,-94.18699879,43.76941188,-94.1869919,43.7693398,-6.89E-06,7.21E-05,don't check,,,
27097POTW04,Motley WWTP,-94.63903535,46.33746428,-94.6390491,46.3374734,1.37E-05,-9.12E-06,don't check,,,
27127POTW03,Walnut Grove WWTP,-95.45812652,44.22483153,-95.4581265,44.2248315,-2.00E-08,3.00E-08,don't check,,,
27137POTW14,Crane Lake WWTP,-92.4806036,48.25566577,-92.48073523,48.25920641,1.32E-04,-0.00354064,done,"48.256008004863496,",-92.4821915,
27153POTW03,Long Prairie WWTP - Municipal,-94.86529211,45.99448888,-94.8652921,45.9944888,-1.00E-08,8.00E-08,don't check,,,
27165POTW02,Madelia WWTP,-94.40678213,44.03447008,-94.40438232,44.0335483,-0.00239981,9.22E-04,done,44.03447008,-94.40678213,
27171POTW02,Monticello WWTP,-93.77659364,45.29854791,-93.7765936,45.2985479,-4.00E-08,1.00E-08,don't check,,,
27035POTW03,Crosslake WWTP,-94.11162357,46.66215605,-94.10229629,46.6884199,-0.00932728,-0.02626385,done,"46.6611334027944,",-94.11047211,
27061POTW05,Coleraine-Bovey-Taconite Joint WWTP,-93.40455484,47.28571981,-93.4207176,47.29933738,0.01616276,-0.01361757,done,47.28571981,-93.40455484,
27147POTW01,Blooming Prairie WWTP,-93.04422774,43.86250309,-93.044241,43.8624934,1.33E-05,9.69E-06,don't check,,,
27039POTW02,Hayfield WWTP,-92.85798371,43.8891642,-92.8579837,43.8891565,-1.00E-08,7.70E-06,don't check,,,
27065POTW01,Mora WWTP,-93.31502395,45.87704741,-93.29547053,45.87650694,-0.01955342,5.40E-04,done,45.87704741,-93.31502395,
27085POTW06,Glencoe WWTP,-94.13383126,44.76577222,-94.13425775,44.76570666,4.26E-04,6.56E-05,don't check,,,
27045POTW07,Canton WWTP,-91.93409146,43.53557017,-91.9340987,43.5355649,7.24E-06,5.27E-06,don't check,,,
27109POTW01,Stewartville WWTP,-92.47869565,43.87102306,-92.4787066,43.8700701,1.09E-05,9.53E-04,don't check,,,
27129POTW06,Morton WWTP,-94.98562814,44.54740201,-95.03425,44.58091,0.04862186,-0.03350799,done,44.54740201,-94.98562814,
27097POTW03,Randall WWTP,-94.49427603,46.09423313,-94.494276,46.0942331,-3.00E-08,3.00E-08,don't check,,,
27145POTW04,Holdingford WWTP,-94.44969177,45.72411346,-94.44969558,45.72411236,3.81E-06,1.10E-06,don't check,,,
27153POTW02,Staples WWTP,-94.78393064,46.36227219,-94.7839306,46.3622721,-4.00E-08,9.00E-08,don't check,,,
27165POTW03,Saint James WWTP,-94.61176461,43.98961695,-94.6119393,43.9896023,1.75E-04,1.46E-05,don't check,,,
27039POTW07,Claremont WWTP,-92.97232146,44.04111277,-92.972333,44.0411211,1.15E-05,-8.33E-06,don't check,,,
27061POTW08,Effie WWTP,-93.64683616,47.84199415,-93.6468367,47.8419953,5.40E-07,-1.15E-06,don't check,,,
27045POTW05,Chatfield WWTP,-92.18647509,43.83900938,-92.186475,43.8390093,-9.00E-08,8.00E-08,don't check,,,
27111POTW04,Fergus Falls WWTP,-96.11170169,46.28179083,-96.1117011,46.2817807,-5.90E-07,1.01E-05,don't check,,,
27129POTW02,Olivia WWTP,-95.01290435,44.76664398,-95.0121482,44.7670612,-7.56E-04,-4.17E-04,don't check,,,
27141POTW02,Becker WWTP,-93.85347571,45.39387273,-93.87265382,45.39378487,0.01917811,8.79E-05,done,"45.39647838816344,",-93.86141656,
27137POTW04,Ely WWTP,-91.87316582,47.91124507,-91.9260354,47.8891481,0.05286958,0.02209697,done,"47.909258182239796,",-91.87156738,
27145POTW13,Lake Henry WWTP,-94.79948269,45.46774194,-94.7994826,45.4677419,-9.00E-08,4.00E-08,don't check,,,
27171POTW12,Montrose WWTP,-93.90644893,45.05744432,NA,NA,NA,NA,done,45.05744432,-93.90644893,
27037POTW04,Met Council Hastings WWTP,-92.85074567,44.74377662,-92.8462044,44.7453079,-0.00454127,-0.00153128,done,"44.74542448605386,",-92.84670107,
27043POTW02,Blue Earth WWTP,-94.1143367,43.64429674,-94.1143368,43.6443017,1.00E-07,-4.96E-06,don't check,,,
27041POTW02,Alexandria Lakes Area Sanitary District,-95.40803681,45.86718743,NA,NA,NA,NA,done,"45.86700061016136,",-95.40576229,
27071POTW01,NKASD WWTP,-93.42386492,48.60071429,-93.43010206,48.59661227,0.00623714,0.00410202,done,"48.59982397928004,",-93.42197206,
27085POTW07,Lester Prairie WWTP,-94.03053726,44.88212033,-94.02819072,44.87045467,-0.00234654,0.01166566,done,"44.87911273823117,",-94.03507833,
27045POTW02,Preston WWTP,-92.09132462,43.67070812,-92.0913663,43.6707695,4.17E-05,-6.14E-05,don't check,,,
27111POTW01,Pelican Rapids WWTP,-96.08915129,46.57146906,-96.0891512,46.571469,-9.00E-08,6.00E-08,don't check,,,
27097POTW01,Swanville WWTP,-94.64561826,45.91348083,-94.64184205,45.91347512,-0.00377621,5.71E-06,done,45.91348083,-94.64561826,
27141POTW03,Big Lake WWTP,-93.74978408,45.30087063,-93.74978,45.3008682,-4.08E-06,2.43E-06,don't check,,,
27137POTW07,Eveleth WWTP,-92.54467415,47.46074412,-92.5450089,47.4605934,3.35E-04,1.51E-04,don't check,,,
27157POTW05,Hammond WWTP,-92.37313841,44.22024315,-92.3731484,44.2249764,9.99E-06,-0.00473325,done,"44.22366967506271,",-92.37441748,
27169POTW01,Altura WWTP,-91.94388098,44.07759619,-91.9438951,44.0776173,1.41E-05,-2.11E-05,don't check,,,
27171POTW13,Otsego WWTP West,-93.65529936,45.26272477,-93.6552992,45.2627138,-1.60E-07,1.10E-05,don't check,,,
27039POTW03,Kasson WWTP,-92.72356771,44.04383721,-92.7176742,44.0438108,-0.00589351,2.64E-05,done,"44.04809834295363,",-92.73132715,
27045POTW12,Spring Valley WWTP,-92.3816866,43.69053627,-92.3816879,43.6905336,1.30E-06,2.67E-06,don't check,,,
27061POTW06,Grand Rapids WWTP,-93.49687607,47.21850962,-93.50571878,47.20383897,0.00884271,0.01467065,done,"47.21575611409742,",-93.50029233,
27045POTW10,Rushford WWTP,-91.75027316,43.80632351,-91.7504223,43.8062919,1.49E-04,3.16E-05,don't check,,,
27045POTW11,Fountain WWTP,-92.13969017,43.73497151,-91.77657161,43.52391539,-0.36311856,0.21105612,done,"43.74081078532096,",-92.13679273,
27073POTW01,Dawson WWTP,-96.04865517,44.93275398,-96.0456049,44.9321067,-0.00305027,6.47E-04,done,"44.9316863853353,",-96.04479392,
27085POTW05,Winsted WWTP,-94.04071747,44.94539378,-94.0406015,44.9451061,-1.16E-04,2.88E-04,don't check,,,
27049POTW01,Goodhue WWTP,-92.62248282,44.39985972,-92.6224752,44.3998517,-7.62E-06,8.02E-06,don't check,,,
27129POTW01,Renville WWTP,-95.21708462,44.78737856,-95.18016002,44.74514015,-0.0369246,0.04223841,done,44.78737856,-95.21708462,
27099POTW01,Adams WWTP,-92.72442544,43.56402152,-92.7243613,43.565413,-6.41E-05,-0.00139148,done,43.56402152,-92.72442544,
27145POTW02,Melrose WWTP,-94.80249046,45.67503724,-94.802452,45.6750552,-3.85E-05,-1.80E-05,don't check,,,
27157POTW01,Lake City WWTP,-92.26213154,44.43809989,-92.2665265,44.4478869,0.00439496,-0.00978701,done,"44.43778362252048,",-92.26154836,
27169POTW02,Lewiston WWTP,-91.88398155,43.96933724,-91.8839055,43.9693365,-7.61E-05,7.40E-07,don't check,,,
27061POTW02,Keewatin WWTP,-93.07039387,47.39351791,-93.0704021,47.3935123,8.23E-06,5.61E-06,don't check,,,
27045POTW08,Ostrander WWTP,-92.42910498,43.62023221,-92.4291498,43.6202542,4.48E-05,-2.20E-05,don't check,,,
27115POTW02,Hinckley WWTP,-92.9087736,46.02370045,-92.9087736,46.0237004,0,5.00E-08,don't check,,,
27129POTW04,Sacred Heart WWTP,-95.34606595,44.78397268,-95.3460751,44.7839884,9.15E-06,-1.57E-05,don't check,,,
27141POTW05,Clear Lake/Clearwater WWTP,-94.0240872,45.41426011,-94.0232932,45.4219423,-7.94E-04,-0.00768219,done,45.41426011,-94.0240872,
27137POTW01,Gilbert WWTP,-92.46137409,47.49079769,-92.40822476,47.46313756,-0.05314933,0.02766013,done,"47.49107504342241,",-92.45901806,
27145POTW05,Richmond WWTP,-94.52473229,45.45196427,-94.5247241,45.4519562,-8.19E-06,8.07E-06,don't check,,,
27171POTW04,Rockford WWTP,-93.73003578,45.0945175,-93.78577,45.11627,0.05573422,-0.0217525,done,"45.0949614700677,",-93.73162343,
27039POTW04,West Concord WWTP,-92.89830008,44.15355552,-92.8918091,44.1515402,-0.00649098,0.00201532,done,"44.15377219775214,",-92.8971509,
27045POTW03,Wykoff WWTP,-92.26235003,43.70873051,-92.2646094,43.7069454,0.00225937,0.00178511,done,43.7069454,-92.2646094,
27049POTW02,Kenyon WWTP,-92.97933025,44.27869913,-92.9793302,44.2786905,-5.00E-08,8.63E-06,don't check,,,
27093POTW01,Grove City WWTP,-94.680416,45.1512405,-94.6809085,45.1565348,4.93E-04,-0.0052943,done,45.1565348,-94.6809085,
27059POTW01,Cambridge WWTP,-93.23311248,45.56645614,-93.2330938,45.5666384,-1.87E-05,-1.82E-04,don't check,,,
27109POTW03,Byron WWTP,-92.64209036,44.05423991,-92.6420903,44.0542399,-6.00E-08,1.00E-08,don't check,,,
27141POTW01,Elk River WWTP,-93.55846176,45.2989929,-93.5594068,45.2996145,9.45E-04,-6.22E-04,don't check,,,
27157POTW03,Mazeppa WWTP,-92.54925264,44.26833586,-92.5492754,44.2683441,2.28E-05,-8.24E-06,don't check,,,
27169POTW05,Minnesota City WWTP,-91.74990512,44.09214637,-91.7499051,44.0921463,-2.00E-08,7.00E-08,don't check,,,
27061POTW01,Marble WWTP,-93.29534206,47.31866885,-93.31090021,47.32668358,0.01555815,-0.00801473,done,"47.31915812264421,",-93.29407791,
27045POTW09,Peterson WWTP,-91.82921424,43.78742314,-91.8292142,43.7874231,-4.00E-08,4.00E-08,don't check,,,
